NORAD_CAT_ID,OBJECT_NAME,OBJECT_TYPE,EPOCH,MEAN_MOTION,ECCENTRICITY,INCLINATION,RA_OF_ASC_NODE,ARG_OF_PERICENTER,MEAN_ANOMALY,BSTAR,MEAN_MOTION_DOT,MEAN_MOTION_DDOT,TLE_LINE0,TLE_LINE1,TLE_LINE2,SEMIMAJOR_AXIS,PERIOD,APOGEE,PERIGEE,DECAYED
51857.0,STARLINK-3571,PAYLOAD,2022-03-28 22:00:00,15.64738506,0.0001369,53.2174,19.0566,49.368,61.7617,-0.0078926999999999,-0.00716846,0.0,0 STARLINK-3571,1 51857U 22022F   22087.91667824 -.00716846  00000-0 -78927-2 0  9995,2 51857  53.2174  19.0566 0001369  49.3680  61.7617 15.64738506  5240,6752.128000000002,92.028,374.917,373.069,0.0
51857.0,STARLINK-3571,PAYLOAD,2022-03-29 14:00:01,15.63684021,0.0001178,53.2177,15.8005,69.9651,197.466,-0.0076168999999999,-0.00667367,0.0,0 STARLINK-3571,1 51857U 22022F   22088.58334491 -.00667367  00000-0 -76169-2 0  9999,2 51857  53.2177  15.8005 0001178  69.9651 197.4660 15.63684021  3669,6755.163000000001,92.09,377.824,376.232,0.0
51857.0,STARLINK-3571,PAYLOAD,2022-03-29 22:00:00,15.63209542,0.000112,53.2177,14.1733,67.7111,276.928,-0.008404,-0.00718084,0.0,0 STARLINK-3571,1 51857U 22022F   22088.91667824 -.00718084  00000-0 -84040-2 0  9995,2 51857  53.2177  14.1733 0001120  67.7111 276.9280 15.63209542  3700,6756.53,92.118,379.152,377.638,0.0
51857.0,STARLINK-3571,PAYLOAD,2022-03-30 14:00:01,15.62094637,0.0001267,53.2178,10.9248,49.8926,87.4699,-0.0071072,-0.00590528,0.0,0 STARLINK-3571,1 51857U 22022F   22089.58335648 -.00590528  00000-0 -71072-2 0  9997,2 51857  53.2178  10.9248 0001267  49.8926  87.4699 15.62094637  3674,6759.744000000002,92.184,382.466,380.753,0.0
51857.0,STARLINK-3571,PAYLOAD,2022-03-30 20:00:01,15.61805081,0.0001321,53.2176,9.7062,53.7378,50.1082,-0.0088262999999999,-0.00714076,0.0,0 STARLINK-3571,1 51857U 22022F   22089.83334491 -.00714076  00000-0 -88263-2 0  9996,2 51857  53.2176   9.7062 0001321  53.7378  50.1082 15.61805081  5541,6760.58,92.201,383.338,381.552,0.0
51857.0,STARLINK-3571,PAYLOAD,2022-03-30 22:00:00,15.61677536,0.0001401,53.2176,9.3011,58.0654,154.5693,-0.0088714,-0.00714168,0.0,0 STARLINK-3571,1 51857U 22022F   22089.91667824 -.00714168  00000-0 -88714-2 0  9997,2 51857  53.2176   9.3011 0001401  58.0654 154.5693 15.61677536  3722,6760.948,92.209,383.76,381.866,0.0
51857.0,STARLINK-3571,PAYLOAD,2022-03-31 14:00:01,15.6065649,0.0001026,53.2174,6.0584,70.561,291.0071,-0.0092074,-0.00712459,0.0,0 STARLINK-3571,1 51857U 22022F   22090.58334491 -.00712459  00000-0 -92074-2 0  9998,2 51857  53.2174   6.0584 0001026  70.5610 291.0071 15.60656490  3691,6763.897,92.269,386.456,385.068,0.0
51857.0,STARLINK-3571,PAYLOAD,2022-03-31 22:00:00,15.60148976,0.0001135,53.2175,4.4403,68.0539,7.0599,-0.0094445,-0.00716298,0.0,0 STARLINK-3571,1 51857U 22022F   22090.91667824 -.00716298  00000-0 -94445-2 0  9993,2 51857  53.2175   4.4403 0001135  68.0539   7.0599 15.60148976  5717,6765.363,92.299,387.996,386.461,0.0
51857.0,STARLINK-3571,PAYLOAD,2022-04-01 14:00:01,15.59126708,0.0001261,53.2175,1.2045,70.0479,150.3231,-0.0097534,-0.00711701,0.0,0 STARLINK-3571,1 51857U 22022F   22091.58334491 -.00711701  00000-0 -97534-2 0  9994,2 51857  53.2175   1.2045 0001261  70.0479 150.3231 15.59126708  3709,6768.32,92.359,391.039,389.332,0.0
51857.0,STARLINK-3571,PAYLOAD,2022-04-01 22:00:00,15.58618144,0.0001259,53.2177,359.5903,63.9766,228.1019,-0.0099824,-0.00714191,0.0,0 STARLINK-3571,1 51857U 22022F   22091.91667824 -.00714191  00000-0 -99824-2 0  9990,2 51857  53.2177 359.5903 0001259  63.9766 228.1019 15.58618144  3673,6769.792,92.39,392.51,390.805,0.0
51857.0,STARLINK-3571,PAYLOAD,2022-04-02 06:00:00,15.58108343,0.0001185,53.2173,357.9769,54.5107,308.6629,-0.010165,-0.00713365,0.0,0 STARLINK-3571,1 51857U 22022F   22092.25001157 -.00713365  00000-0 -10165-1 0  9991,2 51857  53.2173 357.9769 0001185  54.5107 308.6629 15.58108343  5920,6771.269,92.42,393.936,392.332,0.0
51857.0,STARLINK-3571,PAYLOAD,2022-04-02 22:00:01,15.57086806,0.000139,53.2174,354.7514,54.8893,88.7043,-0.010541,-0.0071192999999999,0.0,0 STARLINK-3571,1 51857U 22022F   22092.91668981 -.00711930  00000-0 -10541-1 0  9992,2 51857  53.2174 354.7514 0001390  54.8893  88.7043 15.57086806  3705,6774.23,92.48,397.037,395.154,0.0
51857.0,STARLINK-3571,PAYLOAD,2022-04-03 04:00:00,15.56701591,0.0001118,53.2173,353.5445,79.3416,26.188,-0.010618,-0.00707202,0.0,0 STARLINK-3571,1 51857U 22022F   22093.16667824 -.00707202  00000-0 -10618-1 0  9997,2 51857  53.2173 353.5445 0001118  79.3416  26.1880 15.56701591  6066,6775.348000000001,92.503,397.97,396.455,0.0
51857.0,STARLINK-3571,PAYLOAD,2022-04-03 22:00:00,15.55558843,0.0001211,53.2174,349.9237,60.1245,289.3376,-0.011207,-0.00714605,0.0,0 STARLINK-3571,1 51857U 22022F   22093.91667824 -.00714605  00000-0 -11207-1 0  9990,2 51857  53.2174 349.9237 0001211  60.1245 289.3376 15.55558843  3695,6778.666,92.571,401.352,399.71,0.0
51857.0,STARLINK-3571,PAYLOAD,2022-04-04 04:00:00,15.55173696,0.0001097,53.2175,348.7194,92.1397,217.9446,-0.011281,-0.00709551,0.0,0 STARLINK-3571,1 51857U 22022F   22094.16667824 -.00709551  00000-0 -11281-1 0  9994,2 51857  53.2175 348.7194 0001097  92.1397 217.9446 15.55173696  6226,6779.785,92.594,402.394,400.906,0.0
51857.0,STARLINK-3571,PAYLOAD,2022-04-04 14:00:01,15.54538537,0.0001190999999999,53.2173,346.7099,69.5318,54.1571,-0.011635,-0.0071441,0.0,0 STARLINK-3571,1 51857U 22022F   22094.58334491 -.00714410  00000-0 -11635-1 0  9994,2 51857  53.2173 346.7099 0001191  69.5318  54.1571 15.54538537  3700,6781.630999999999,92.632,404.304,402.689,0.0
51857.0,STARLINK-3571,PAYLOAD,2022-04-04 22:00:00,15.54026268,0.0001440999999999,53.2175,345.107,57.612,132.2706,-0.011782,-0.00710342,0.0,0 STARLINK-3571,1 51857U 22022F   22094.91667824 -.00710342  00000-0 -11782-1 0  9993,2 51857  53.2175 345.1070 0001441  57.6120 132.2706 15.54026268  3702,6783.121999999999,92.663,405.964,404.009,0.0
51857.0,STARLINK-3571,PAYLOAD,2022-04-05 06:00:00,15.5352006,0.0001208,53.2172,343.5039,77.3107,178.1512,-0.012112,-0.00716227,0.0,0 STARLINK-3571,1 51857U 22022F   22095.25001157 -.00716227  00000-0 -12112-1 0  9998,2 51857  53.2172 343.5039 0001208  77.3107 178.1512 15.53520060  6391,6784.595,92.693,407.28,405.64,0.0
51857.0,STARLINK-3571,PAYLOAD,2022-04-05 14:00:01,15.53006241,0.0001156,53.2174,341.9003,71.5442,248.953,-0.012227,-0.00710132,0.0,0 STARLINK-3571,1 51857U 22022F   22095.58335648 -.00710132  00000-0 -12227-1 0  9995,2 51857  53.2174 341.9003 0001156  71.5442 248.9530 15.53006241  3715,6786.090999999999,92.723,408.741,407.172,0.0
51857.0,STARLINK-3571,PAYLOAD,2022-04-05 22:00:00,15.52499178,0.0001298,53.2175,340.3014,52.7643,332.0212,-0.012536,-0.00714406,0.0,0 STARLINK-3571,1 51857U 22022F   22095.91667824 -.00714406  00000-0 -12536-1 0  9997,2 51857  53.2175 340.3014 0001298  52.7643 332.0212 15.52499178  3707,6787.569,92.754,410.315,408.55300000000005,0.0
51857.0,STARLINK-3571,PAYLOAD,2022-04-06 06:00:02,15.51872315,0.0001046,53.2168,338.7034,62.7205,25.9428,-0.010122,-0.0057407,0.0,0 STARLINK-3571,1 51857U 22022F   22096.25002315 -.00574070  00000-0 -10122-1 0  9993,2 51857  53.2168 338.7034 0001046  62.7205  25.9428 15.51872315  6547,6789.397,92.791,411.972,410.552,0.0
51857.0,STARLINK-3571,PAYLOAD,2022-04-06 14:00:01,15.51479142,0.0001291,53.2171,337.1019,66.6009,85.05799999999998,-0.013013,-0.0072387,0.0,0 STARLINK-3571,1 51857U 22022F   22096.58334491 -.00723870  00000-0 -13013-1 0  9998,2 51857  53.2171 337.1019 0001291  66.6009  85.0580 15.51479142  6608,6790.544,92.815,413.285,411.532,0.0
51857.0,STARLINK-3571,PAYLOAD,2022-04-06 22:00:00,15.50966706,0.0001465,53.2172,335.5067,60.0989,154.0768,-0.013166,-0.00719399,0.0,0 STARLINK-3571,1 51857U 22022F   22096.91667824 -.00719399  00000-0 -13166-1 0  9994,2 51857  53.2172 335.5067 0001465  60.0989 154.0768 15.50966706  3699,6792.0390000000025,92.845,414.899,412.909,0.0
51857.0,STARLINK-3571,PAYLOAD,2022-04-07 14:00:01,15.49888726,0.0001227,53.2173,332.3153,78.4372,258.9389,-0.000105,-6.406e-05,0.0,0 STARLINK-3571,1 51857U 22022F   22097.58334491 -.00006406  00000-0 -10500-3 0  9998,2 51857  53.2173 332.3153 0001227  78.4372 258.9389 15.49888726  3704,6795.188,92.91,417.887,416.22,0.0
51857.0,STARLINK-3571,PAYLOAD,2022-04-07 20:00:01,15.50047061,0.0001506,53.2176,331.1247,73.7677,219.4075,-0.0092219,-0.00494932,0.0,0 STARLINK-3571,1 51857U 22022F   22097.83334491 -.00494932  00000-0 -92219-2 0  9997,2 51857  53.2176 331.1247 0001506  73.7677 219.4075 15.50047061  6791,6794.726,92.9,417.614,415.567,0.0
51857.0,STARLINK-3571,PAYLOAD,2022-04-07 22:00:00,15.49783774,0.0001406999999999,53.2176,330.7263,75.5489,322.9316,-0.0010863,-0.00061405,0.0,0 STARLINK-3571,1 51857U 22022F   22097.91667824 -.00061405  00000-0 -10863-2 0  9995,2 51857  53.2176 330.7263 0001407  75.5489 322.9316 15.49783774  3684,6795.495,92.916,418.316,416.404,0.0
51857.0,STARLINK-3571,PAYLOAD,2022-04-08 06:00:00,15.50158888,0.0001306,53.217,329.1345,58.0867,41.2446,-0.013132,-0.00690081,0.0,0 STARLINK-3571,1 51857U 22022F   22098.25001157 -.00690081  00000-0 -13132-1 0  9993,2 51857  53.2170 329.1345 0001306  58.0867  41.2446 15.50158888  6856,6794.399,92.894,417.151,415.376,0.0
51857.0,STARLINK-3571,PAYLOAD,2022-04-08 14:00:03,15.49633731,0.0001274999999999,53.2173,327.5364,71.5633,88.8413,-0.0050741,-0.00276054,0.0,0 STARLINK-3571,1 51857U 22022F   22098.58336806 -.00276054  00000-0 -50741-2 0  9999,2 51857  53.2173 327.5364 0001275  71.5633  88.8413 15.49633731  6919,6795.934,92.925,418.665,416.932,0.0
51857.0,STARLINK-3571,PAYLOAD,2022-04-08 22:00:00,15.49437449,0.0001496999999999,53.2175,325.9438,57.2318,163.5609,-0.013921,-0.00720226,0.0,0 STARLINK-3571,1 51857U 22022F   22098.91667824 -.00720226  00000-0 -13921-1 0  9996,2 51857  53.2175 325.9438 0001497  57.2318 163.5609 15.49437449  6963,6796.5080000000025,92.937,419.39,417.355,0.0
